{"type": "FeatureCollection", "features": [ {"type": "Feature", "properties": {"norad_id": 33799, "name": "COSMOS 2251 DEB", "group": "cosmos-2251-debris", "lat": 55.32966551618769, "lon": 121.98707346674591, "alt_km": 631.9215375732256, "timestamp": "2025-12-04T17:48:40.557445+00:00", "meta": {"OBJECT_NAME": "COSMOS 2251 DEB", "OBJECT_ID": "1993-036AQ", "EPOCH": "2025-12-04T07:56:59.815104", "MEAN_MOTION": 14.79360622, "ECCENTRICITY": 0.00243648, "INCLINATION": 74.0317, "RA_OF_ASC_NODE": 98.3401, "ARG_OF_PERICENTER": 171.4057, "MEAN_ANOMALY": 220.3559, "EPHEMERIS_TYPE": 0, "CLASSIFICATION_TYPE": "U", "NORAD_CAT_ID": 33799, "ELEMENT_SET_NO": 999, "REV_AT_EPOCH": 88687, "BSTAR": 0.0035857494, "MEAN_MOTION_DOT": 0.00026929, "MEAN_MOTION_DDOT": 0}, "tle": {"line1": "1 33799U 93036AQ  25338.33124786  .00026929  00000+0  35857-2 0  9994", "line2": "2 33799  74.0317  98.3401 0024364 171.4057 220.3559 14.79360622886877"}}, "geometry": {"type": "Point", "coordinates": [121.98707346674591, 55.32966551618769]}}, {"type": "Feature", "properties": {"norad_id": 33805, "name": "COSMOS 2251 DEB", "group": "cosmos-2251-debris", "lat": 73.10587142063011, "lon": 76.00806744694768, "alt_km": 672.6526685487825, "timestamp": "2025-12-04T17:48:40.557455+00:00", "meta": {"OBJECT_NAME": "COSMOS 2251 DEB", "OBJECT_ID": "1993-036AW", "EPOCH": "2025-12-04T07:29:28.606560", "MEAN_MOTION": 14.57826507, "ECCENTRICITY": 0.00605609, "INCLINATION": 74.0305, "RA_OF_ASC_NODE": 327.3638, "ARG_OF_PERICENTER": 158.7029, "MEAN_ANOMALY": 201.6678, "EPHEMERIS_TYPE": 0, "CLASSIFICATION_TYPE": "U", "NORAD_CAT_ID": 33805, "ELEMENT_SET_NO": 999, "REV_AT_EPOCH": 89104, "BSTAR": 0.00047384455, "MEAN_MOTION_DOT": 2.194e-05, "MEAN_MOTION_DDOT": 0}, "tle": {"line1": "1 33805U 93036AW  25338.31213665  .00002194  00000+0  47384-3 0  9992", "line2": "2 33805  74.0305 327.3638 0060560 158.7029 201.6678 14.57826507891048"}}, "geometry": {"type": "Point", "coordinates": [76.00806744694768, 73.10587142063011]}}, {"type": "Feature", "properties": {"norad_id": 33811, "name": "COSMOS 2251 DEB", "group": "cosmos-2251-debris", "lat": 43.24233981394743, "lon": -24.932706877014233, "alt_km": 526.6532035056907, "timestamp": "2025-12-04T17:48:40.557466+00:00", "meta": {"OBJECT_NAME": "COSMOS 2251 DEB", "OBJECT_ID": "1993-036BC", "EPOCH": "2025-12-04T06:56:55.769568", "MEAN_MOTION": 15.0484535, "ECCENTRICITY": 0.00308061, "INCLINATION": 73.8372, "RA_OF_ASC_NODE": 320.1768, "ARG_OF_PERICENTER": 42.2751, "MEAN_ANOMALY": 72.3421, "EPHEMERIS_TYPE": 0, "CLASSIFICATION_TYPE": "U", "NORAD_CAT_ID": 33811, "ELEMENT_SET_NO": 999, "REV_AT_EPOCH": 89891, "BSTAR": 0.0027344754, "MEAN_MOTION_DOT": 0.00039236, "MEAN_MOTION_DDOT": 0}, "tle": {"line1": "1 33811U 93036BC  25338.28953437  .00039236  00000+0  27345-2 0  9994", "line2": "2 33811  73.8372 320.1768 0030806  42.2751  72.3421 15.04845350898912"}}, "geometry": {"type": "Point", "coordinates": [-24.932706877014233, 43.24233981394743]}}, {"type": "Feature", "properties": {"norad_id": 33815, "name": "COSMOS 2251 DEB", "group": "cosmos-2251-debris", "lat": 37.05300069371973, "lon": 0.7946590883707952, "alt_km": 517.5917498915596, "timestamp": "2025-12-04T17:48:40.557476+00:00", "meta": {"OBJECT_NAME": "COSMOS 2251 DEB", "OBJECT_ID": "1993-036BG", "EPOCH": "2025-12-04T00:16:31.408896", "MEAN_MOTION": 15.14996402, "ECCENTRICITY": 0.00042403, "INCLINATION": 73.9554, "RA_OF_ASC_NODE": 194.871, "ARG_OF_PERICENTER": 242.2418, "MEAN_ANOMALY": 235.1772, "EPHEMERIS_TYPE": 0, "CLASSIFICATION_TYPE": "U", "NORAD_CAT_ID": 33815, "ELEMENT_SET_NO": 999, "REV_AT_EPOCH": 88238, "BSTAR": 0.011246177, "MEAN_MOTION_DOT": 0.00216461, "MEAN_MOTION_DDOT": 0}, "tle": {"line1": "1 33815U 93036BG  25338.01147464  .00216461  00000+0  11246-1 0  9993", "line2": "2 33815  73.9554 194.8710 0004240 242.2418 235.1772 15.14996402882385"}}, "geometry": {"type": "Point", "coordinates": [0.7946590883707952, 37.05300069371973]}}, {"type": "Feature", "properties": {"norad_id": 33816, "name": "COSMOS 2251 DEB", "group": "cosmos-2251-debris", "lat": -69.17121599133473, "lon": 69.53347322926541, "alt_km": 1131.7177992567576, "timestamp": "2025-12-04T17:48:40.557486+00:00", "meta": {"OBJECT_NAME": "COSMOS 2251 DEB", "OBJECT_ID": "1993-036BH", "EPOCH": "2025-12-04T02:33:41.335488", "MEAN_MOTION": 13.81763929, "ECCENTRICITY": 0.02652631, "INCLINATION": 73.8938, "RA_OF_ASC_NODE": 120.0271, "ARG_OF_PERICENTER": 134.6291, "MEAN_ANOMALY": 227.6804, "EPHEMERIS_TYPE": 0, "CLASSIFICATION_TYPE": "U", "NORAD_CAT_ID": 33816, "ELEMENT_SET_NO": 999, "REV_AT_EPOCH": 84554, "BSTAR": 0.0010031037, "MEAN_MOTION_DOT": 1.381e-05, "MEAN_MOTION_DDOT": 0}, "tle": {"line1": "1 33816U 93036BH  25338.10672842  .00001381  00000+0  10031-2 0  9992", "line2": "2 33816  73.8938 120.0271 0265263 134.6291 227.6804 13.81763929845548"}}, "geometry": {"type": "Point", "coordinates": [69.53347322926541, -69.17121599133473]}}, {"type": "Feature", "properties": {"norad_id": 33818, "name": "COSMOS 2251 DEB", "group": "cosmos-2251-debris", "lat": 17.387481564650276, "lon": -2.3684404745352747, "alt_km": 511.96356340292186, "timestamp": "2025-12-04T17:48:40.557497+00:00", "meta": {"OBJECT_NAME": "COSMOS 2251 DEB", "OBJECT_ID": "1993-036BK", "EPOCH": "2025-12-04T00:11:27.788064", "MEAN_MOTION": 15.11482865, "ECCENTRICITY": 0.00290575, "INCLINATION": 74.0753, "RA_OF_ASC_NODE": 184.2758, "ARG_OF_PERICENTER": 175.8605, "MEAN_ANOMALY": 312.6916, "EPHEMERIS_TYPE": 0, "CLASSIFICATION_TYPE": "U", "NORAD_CAT_ID": 33818, "ELEMENT_SET_NO": 999, "REV_AT_EPOCH": 89730, "BSTAR": 0.0039354339, "MEAN_MOTION_DOT": 0.00067891, "MEAN_MOTION_DDOT": 0}, "tle": {"line1": "1 33818U 93036BK  25338.00796051  .00067891  00000+0  39354-2 0  9999", "line2": "2 33818  74.0753 184.2758 0029057 175.8605 312.6916 15.11482865897307"}}, "geometry": {"type": "Point", "coordinates": [-2.3684404745352747, 17.387481564650276]}}, {"type": "Feature", "properties": {"norad_id": 33819, "name": "COSMOS 2251 DEB", "group": "cosmos-2251-debris", "lat": 57.963930173226416, "lon": -108.74518256843841, "alt_km": 721.388630653104, "timestamp": "2025-12-04T17:48:40.557507+00:00", "meta": {"OBJECT_NAME": "COSMOS 2251 DEB", "OBJECT_ID": "1993-036BL", "EPOCH": "2025-12-04T02:59:36.816288", "MEAN_MOTION": 14.32174938, "ECCENTRICITY": 0.00887697, "INCLINATION": 74.1797, "RA_OF_ASC_NODE": 225.4271, "ARG_OF_PERICENTER": 89.385, "MEAN_ANOMALY": 30.9437, "EPHEMERIS_TYPE": 0, "CLASSIFICATION_TYPE": "U", "NORAD_CAT_ID": 33819, "ELEMENT_SET_NO": 999, "REV_AT_EPOCH": 87372, "BSTAR": 0.0013009123, "MEAN_MOTION_DOT": 3.636e-05, "MEAN_MOTION_DDOT": 0}, "tle": {"line1": "1 33819U 93036BL  25338.12473167  .00003636  00000+0  13009-2 0  9999", "line2": "2 33819  74.1797 225.4271 0088769  89.3850  30.9437 14.32174938873720"}}, "geometry": {"type": "Point", "coordinates": [-108.74518256843841, 57.963930173226416]}}, {"type": "Feature", "properties": {"norad_id": 33821, "name": "COSMOS 2251 DEB", "group": "cosmos-2251-debris", "lat": -45.16457254145823, "lon": 142.99454591940759, "alt_km": 515.2551881791778, "timestamp": "2025-12-04T17:48:40.557517+00:00", "meta": {"OBJECT_NAME": "COSMOS 2251 DEB", "OBJECT_ID": "1993-036BN", "EPOCH": "2025-12-03T21:32:49.010208", "MEAN_MOTION": 15.24506377, "ECCENTRICITY": 0.0054185, "INCLINATION": 74.0295, "RA_OF_ASC_NODE": 161.5173, "ARG_OF_PERICENTER": 197.4016, "MEAN_ANOMALY": 162.5329, "EPHEMERIS_TYPE": 0, "CLASSIFICATION_TYPE": "U", "NORAD_CAT_ID": 33821, "ELEMENT_SET_NO": 999, "REV_AT_EPOCH": 74866, "BSTAR": 0.0018774, "MEAN_MOTION_DOT": 0.0004841, "MEAN_MOTION_DDOT": 0}, "tle": {"line1": "1 33821U 93036BN  25337.89778947  .00048410  00000+0  18774-2 0  9992", "line2": "2 33821  74.0295 161.5173 0054185 197.4016 162.5329 15.24506377748660"}}, "geometry": {"type": "Point", "coordinates": [142.99454591940759, -45.16457254145823]}}, {"type": "Feature", "properties": {"norad_id": 33822, "name": "COSMOS 2251 DEB", "group": "cosmos-2251-debris", "lat": 71.17210383971756, "lon": -95.30989649062707, "alt_km": 952.9416810246157, "timestamp": "2025-12-04T17:48:40.557528+00:00", "meta": {"OBJECT_NAME": "COSMOS 2251 DEB", "OBJECT_ID": "1993-036BP", "EPOCH": "2025-12-04T01:02:24.821376", "MEAN_MOTION": 14.13003523, "ECCENTRICITY": 0.01540464, "INCLINATION": 74.07, "RA_OF_ASC_NODE": 209.0334, "ARG_OF_PERICENTER": 257.3582, "MEAN_ANOMALY": 229.3917, "EPHEMERIS_TYPE": 0, "CLASSIFICATION_TYPE": "U", "NORAD_CAT_ID": 33822, "ELEMENT_SET_NO": 999, "REV_AT_EPOCH": 85931, "BSTAR": 0.0024511864, "MEAN_MOTION_DOT": 5.094e-05, "MEAN_MOTION_DDOT": 0}, "tle": {"line1": "1 33822U 93036BP  25338.04334284  .00005094  00000+0  24512-2 0  9991", "line2": "2 33822  74.0700 209.0334 0154046 257.3582 229.3917 14.13003523859312"}}, "geometry": {"type": "Point", "coordinates": [-95.30989649062707, 71.17210383971756]}}, {"type": "Feature", "properties": {"norad_id": 33823, "name": "COSMOS 2251 DEB", "group": "cosmos-2251-debris", "lat": -48.963208132965384, "lon": 143.84703990038633, "alt_km": 759.3202542673525, "timestamp": "2025-12-04T17:48:40.557538+00:00", "meta": {"OBJECT_NAME": "COSMOS 2251 DEB", "OBJECT_ID": "1993-036BQ", "EPOCH": "2025-12-04T06:55:31.538208", "MEAN_MOTION": 13.98918804, "ECCENTRICITY": 0.0209253, "INCLINATION": 73.8087, "RA_OF_ASC_NODE": 164.1412, "ARG_OF_PERICENTER": 290.6625, "MEAN_ANOMALY": 253.5086, "EPHEMERIS_TYPE": 0, "CLASSIFICATION_TYPE": "U", "NORAD_CAT_ID": 33823, "ELEMENT_SET_NO": 999, "REV_AT_EPOCH": 85491, "BSTAR": 0.0012367329, "MEAN_MOTION_DOT": 2.126e-05, "MEAN_MOTION_DDOT": 0}, "tle": {"line1": "1 33823U 93036BQ  25338.28855947  .00002126  00000+0  12367-2 0  9990", "line2": "2 33823  73.8087 164.1412 0209253 290.6625 253.5086 13.98918804854911"}}, "geometry": {"type": "Point", "coordinates": [143.84703990038633, -48.963208132965384]}}]}